STARLINK-32645          
1 62321U 24239W   25286.31069825  .00079843  00000+0  19828-2 0  9991
2 62321  53.1577 146.1168 0001482  83.0221 277.0953 15.39656975 46999
STARLINK-32654          
1 62322U 24239X   25285.93433137  .00032321  00000+0  10984-2 0  9994
2 62322  53.1559 160.1002 0001110  84.3285 275.7843 15.30206264 46766
HULIANWANG DIGUI-01     
1 62323U 24240A   25286.33387628  .00000079  00000+0  14956-3 0  9994
2 62323  86.4947  66.5157 0001700 105.8696 254.2626 13.24412685 39969
HULIANWANG DIGUI-02     
1 62324U 24240B   25286.34143660  .00000081  00000+0  15361-3 0  9996
2 62324  86.4977  66.6033 0001572 108.8275 251.3030 13.24413377 39977
HULIANWANG DIGUI-03     
1 62325U 24240C   25286.32635750  .00000068  00000+0  12521-3 0  9991
2 62325  86.4932  66.4619 0001775 104.0898 256.0434 13.24414612 39963
HULIANWANG DIGUI-04     
1 62326U 24240D   25286.31880896  .00000053  00000+0  88789-4 0  9998
2 62326  86.4940  66.4834 0001776 104.6256 255.5075 13.24414534 39965
HULIANWANG DIGUI-05     
1 62327U 24240E   25286.31126647  .00000041  00000+0  61822-4 0  9992
2 62327  86.4995  66.6340 0001777 103.9232 256.2099 13.24414215 39967
HULIANWANG DIGUI-06     
1 62328U 24240F   25286.37171387  .00000045  00000+0  69900-4 0  9999
2 62328  86.4930  66.4178 0001741 108.9662 251.1661 13.24413252 39977
HULIANWANG DIGUI-07     
1 62329U 24240G   25286.36414072  .00000063  00000+0  11163-3 0  9997
2 62329  86.4903  66.3289 0001707 106.3689 253.7633 13.24414121 39976
HULIANWANG DIGUI-08     
1 62330U 24240H   25286.37925578  .00000052  00000+0  86629-4 0  9996
2 62330  86.4984  66.5800 0001828 105.1688 254.9648 13.24413703 39972
HULIANWANG DIGUI-09     
1 62331U 24240J   25286.35655431  .00000080  00000+0  15331-3 0  9995
2 62331  86.4951  66.5298 0001710 109.7361 250.3958 13.24413424 39969
HULIANWANG DIGUI-10     
1 62332U 24240K   25286.34899867  .00000074  00000+0  13856-3 0  9991
2 62332  86.4979  66.6132 0001636 111.4458 248.6851 13.24413774 39962
PIESAT-2 09             
1 62333U 24241A   25284.90821251 -.00000667  00000+0 -33728-4 0  9996
2 62333  97.5095 230.7254 0001627  96.7269 263.4148 15.13463591 45243
PIESAT-2 10             
1 62334U 24241B   25286.32689336  .00019156  00000+0  10093-2 0  9990
2 62334  97.5239 232.2060 0002166  72.3856 287.7612 15.15635032 45469
PIESAT-2 11             
1 62335U 24241C   25284.67676112 -.00000079  00000+0 -83379-6 0  9992
2 62335  97.5065 230.4847 0001568  87.1702 272.9709 15.13457323 45229
PIESAT-2 12             
1 62336U 24241D   25284.95777003  .00004438  00000+0  25177-3 0  9995
2 62336  97.5052 230.7643 0001707  92.5052 267.6375 15.13464522 45258
NAVSTAR 83 (USA 440)    
1 62339U 24242A   25286.04924088 -.00000094  00000+0  00000+0 0  9997
2 62339  54.9407 344.2000 0009113 340.7248  17.5769  2.00566211  6294
O3B MPOWER F7           
1 62362U 24244A   25286.21057435 -.00000027  00000+0  00000+0 0  9993
2 62362   0.0490  21.2595 0005988 182.8806 155.8355  5.00115410 14173
O3B MPOWER F8           
1 62363U 24244B   25286.17777562 -.00000027  00000+0  00000+0 0  9999
2 62363   0.0847 346.4586 0006899 217.5038 156.0092  5.00116418  8518
TIANQI-33               
1 62365U 24245A   25286.31860686  .00000228  00000+0  24484-3 0  9996
2 62365  44.9842 340.4030 0009076 280.9990  78.9821 13.99087104 41785
TIANQI-34               
1 62366U 24245B   25286.29925442  .00000232  00000+0  24773-3 0  9992
2 62366  44.9808 340.2117 0005853 281.0806  78.9368 13.99066355 41757
TIANQI-35               
1 62367U 24245C   25286.28105744  .00000235  00000+0  24962-3 0  9990
2 62367  44.9864 340.2078 0011585 272.4282  87.5224 13.99070548 41764
TIANQI-36               
1 62368U 24245D   25286.26503917  .00000237  00000+0  25072-3 0  9998
2 62368  44.9861 340.1046 0009785 280.1642  79.8087 13.99059377 41769
TJS-12                  
1 62374U 24246A   25283.85419659 -.00000237  00000+0  00000+0 0  9998
2 62374   1.2660 287.0571 0001055 215.4603 331.1632  1.00267566  3062
KORSAT-2                
1 62377U 24247A   25286.24047723  .00007423  00000+0  62946-3 0  9991
2 62377  45.4097 268.0344 0008544 335.6614  24.3859 14.98502899 44512
TANSTAAFL-2             
1 62378U 24247B   25286.06155019  .00012574  00000+0  51155-3 0  9993
2 62378  44.9951 201.5216 0001919  55.9124 304.1940 15.24579841 45177
HAWK-11B                
1 62379U 24247C   25284.51885169  .00011534  00000+0  45445-3 0  9998
2 62379  45.0185 208.1989 0002744 157.0756 203.0249 15.25728090 44969
2024-247D               
1 62380U 24247D   25284.84718291  .00012785  00000+0  50909-3 0  9997
2 62380  44.9973 206.9015 0000626   8.2088 351.8804 15.25287656 45005
HAWK-11C                
1 62381U 24247E   25285.17316267  .00011790  00000+0  46412-3 0  9991
2 62381  45.0071 204.2696 0003916 166.7280 193.3706 15.25737245 45062
HAWK-11A                
1 62382U 24247F   25286.02440819  .00012027  00000+0  47291-3 0  9998
2 62382  44.9956 199.2411 0003396 166.4452 193.6522 15.25756677 45194
LIZZIESAT-2 (LS-2)      
1 62383U 24247G   25286.06069611  .00012348  00000+0  49863-3 0  9993
2 62383  44.9968 200.7601 0002949 122.0564 238.0605 15.24843794 45183
ICEYE-X49               
1 62384U 24247H   25285.86007453  .00010823  00000+0  67910-3 0  9996
2 62384  44.9978 234.7195 0002575  27.7887 332.3127 15.09479634 44754
2024-247J               
1 62385U 24247J   25285.45291996  .00033577  00000+0  10424-2 0  9997
2 62385  45.0020 193.9463 0006974 172.2579 187.8415 15.32838244 45217
TOMORROW-S4             
1 62386U 24247K   25286.06256012  .00009890  00000+0  40566-3 0  9998
2 62386  44.9946 201.5042 0005321  40.9002 319.2278 15.24517060 45173
2024-247L               
1 62387U 24247L   25286.12090452  .00037678  00000+0  11484-2 0  9991
2 62387  44.9933 189.4856 0006114 171.7863 188.3123 15.33377895 45327
GITAI-SC1               
1 62388U 24247M   25285.19037009  .00003556  00000+0  17690-3 0  9991
2 62388  45.0001 210.2851 0000572 343.0257  17.0603 15.19546425 44991
ICEYE-X47               
1 62389U 24247N   25285.59604903  .00010904  00000+0  68513-3 0  9994
2 62389  44.9961 236.0758 0002651   0.7914 359.2965 15.09421489 44717
LASARSAT                
1 62391U 24247Q   25285.92170633  .00031633  00000+0  10537-2 0  9996
2 62391  44.9781 195.2671 0004855  79.2157 280.9273 15.30617772 45234
TOMORROW-S3             
1 62392U 24247R   25284.19352171  .00008947  00000+0  36809-3 0  9997
2 62392  44.9917 211.2476 0001414  68.3059 291.7973 15.24523945 44895
2024-247S               
1 62393U 24247S   25286.12128257  .00067035  00000+0  18250-2 0  9991
2 62393  44.9770 187.5026 0008425 123.5270 236.6422 15.36664652 45349
CROCUBE                 
1 62394U 24247T   25285.76237471  .00033453  00000+0  10993-2 0  9993
2 62394  44.9752 195.7214 0005965  89.5732 270.5836 15.31025129 45217
2024-247U               
1 62395U 24247U   25286.02182968  .00031268  00000+0  99365-3 0  9997
2 62395  44.9993 191.4021 0006932 174.3310 185.7655 15.32125747 45296
2024-247V               
1 62396U 24247V   25286.13415291  .00039278  00000+0  12006-2 0  9993
2 62396  44.9956 189.6437 0006370 175.3925 184.7020 15.33268924 45320
2024-247W               
1 62397U 24247W   25285.13791081  .00061641  00000+0  14457-2 0  9998
2 62397  44.9954 186.5958 0009423 152.4875 207.6514 15.41244771 45275
2024-247X               
1 62398U 24247X   25285.98576142  .00078926  00000+0  17285-2 0  9997
2 62398  44.9978 180.2746 0010723 160.9150 199.2143 15.43175082 45424
2024-247Y               
1 62399U 24247Y   25286.02469729  .00032448  00000+0  10276-2 0  9998
2 62399  45.0013 191.4558 0007312 170.5642 189.5382 15.32218122 45298
XCUBE-1                 
1 62400U 24247Z   25286.15621091  .00013103  00000+0  53259-3 0  9993
2 62400  44.9900 200.5095 0005537 192.8746 167.1995 15.24568548 45193
CTC-0                   
1 62401U 24247AA  25286.04268786  .00023327  00000+0  81564-3 0  9999
2 62401  44.9727 194.4480 0002584 211.6013 148.4716 15.29196391 45254
DJIBOUTI-1B             
1 62402U 24247AB  25286.04073656  .00037508  00000+0  11180-2 0  9992
2 62402  44.9767 188.5793 0007316 155.8092 204.3138 15.34078819 45322
2024-247AC              
1 62403U 24247AC  25286.03361559  .00026882  00000+0  96500-3 0  9997
2 62403  45.0049 198.0296 0002847 141.5533 218.5554 15.28266493 45215
2024-247AD              
1 62404U 24247AD  25285.75958113  .00033968  00000+0  10483-2 0  9992
2 62404  44.9971 191.9422 0006477 173.9424 186.1541 15.33025086 45260
2024-247AE              
1 62405U 24247AE  25285.03585626  .00036288  00000+0  10492-2 0  9997
2 62405  44.9812 193.0315 0007721 153.0374 207.0914 15.35048745 44596
STRIX-2                 
1 62406U 24248A   25286.35313291  .00011761  00000+0  83035-3 0  9995
2 62406  97.5981 239.5821 0018858  95.2635 265.0743 15.04944424 44416
STARLINK-11444 [DTC]    
1 62409U 24249A   25286.28178151  .00365057  00000+0  26983-2 0  9993
2 62409  42.9996 336.5019 0002186 232.1718 127.8952 15.71077902 46294
STARLINK-11493 [DTC]    
1 62410U 24249B   25285.52408607  .00198103  00000+0  15072-2 0  9996
2 62410  42.9994 341.1442 0002119 271.4802  88.5823 15.70897438 46172
STARLINK-11453 [DTC]    
1 62411U 24249C   25285.87373113  .00263583  00000+0  19873-2 0  9996
2 62411  43.0010 338.5866 0002815 273.4434  86.6112 15.70909324 46235
STARLINK-11462 [DTC]    
1 62412U 24249D   25286.26054710  .00269186  00000+0  20163-2 0  9999
2 62412  42.9986 336.3294 0005776 291.9696  68.0557 15.71037437 46292
STARLINK-11441 [DTC]    
1 62413U 24249E   25285.85781664  .00315351  00000+0  23636-2 0  9993
2 62413  42.9996 338.4579 0000761   3.4392 356.6481 15.70893677 46232
STARLINK-11445 [DTC]    
1 62414U 24249F   25285.86843120  .00344398  00000+0  25689-2 0  9994
2 62414  42.9998 338.5430 0001111 319.8287  40.2499 15.70922024 46233
